ONEWEB-0709             
1 55172U 23004AJ  24147.60487172  .00000650  00000+0  17974-2 0  9992
2 55172  87.8961 170.6391 0003040  76.2552 283.8915 13.11410350 67369
ONEWEB-0710             
1 55173U 23004AK  24147.58735142 -.00008342  00000+0 -21526-1 0  9998
2 55173  87.9159 155.4964 0001581  94.8986 265.2326 13.17688967 68607
ONEWEB-0711             
1 55174U 23004AL  24147.57604029  .00000117  00000+0  29318-3 0  9996
2 55174  87.8969 170.6138 0001207  74.6597 285.4664 13.11416825 67320
ONEWEB-0713             
1 55175U 23004AM  24147.59467769  .00000529  00000+0  14567-2 0  9993
2 55175  87.8965 170.6182 0001662  87.4355 272.6964 13.11416328 67313
ONEWEB-0715             
1 55176U 23004AN  24147.58957531  .00000335  00000+0  90972-3 0  9994
2 55176  87.8967 170.6194 0001805  93.4521 266.6814 13.11415101 67359
ONEWEB-0716             
1 55177U 23004AP  24147.58103778 -.00002395  00000+0 -62011-2 0  9993
2 55177  87.9163 155.4888 0001800 117.0577 243.0738 13.17661046 68609
ONEWEB-0717             
1 55178U 23004AQ  24147.56361670 -.00002839  00000+0 -73469-2 0  9991
2 55178  87.9162 155.4571 0001141  68.8175 291.3079 13.17665917 68653
ONEWEB-0719             
1 55179U 23004AR  24147.57470786 -.00000011  00000+0 -62316-4 0  9993
2 55179  87.9163 155.4411 0001815  96.9509 263.1829 13.17650859 68603
ONEWEB-0530             
1 55796U 23029A   24147.28006620 -.00002998  00000+0 -74095-2 0  9996
2 55796  87.9236  64.0813 0001680  69.4732 290.6581 13.20753285 61898
ONEWEB-0534             
1 55797U 23029B   24147.26742596  .00000160  00000+0  36194-3 0  9990
2 55797  87.9222  64.0894 0001913  86.0765 274.0587 13.20768726 61891
ONEWEB-0556             
1 55798U 23029C   24147.50100389  .00000007  00000+0 -14114-4 0  9996
2 55798  87.9221  64.0363 0001332 102.4999 257.6283 13.20775104 61921
ONEWEB-0562             
1 55799U 23029D   24147.33686992 -.00000530  00000+0 -13345-2 0  9992
2 55799  87.9224  64.0594 0000761  72.9142 287.2075 13.20777941 61904
ONEWEB-0563             
1 55800U 23029E   24147.33057270 -.00001061  00000+0 -26418-2 0  9991
2 55800  87.9222  64.0756 0001578  88.3466 271.7848 13.20780752 61890
ONEWEB-0564             
1 55801U 23029F   24147.32423595 -.00003038  00000+0 -75037-2 0  9995
2 55801  87.9222  64.0612 0001340  69.0811 291.0466 13.20786750 61906
ONEWEB-0638             
1 55802U 23029G   24147.34935419 -.00005863  00000+0 -15853-1 0  9998
2 55802  87.8968  79.3458 0001742  99.8323 260.3003 13.14529425 60626
ONEWEB-0639             
1 55803U 23029H   24147.38422782 -.00003352  00000+0 -84070-2 0  9996
2 55803  87.9143  94.5890 0003382  98.1632 261.9884 13.19741578 59744
ONEWEB-0640             
1 55804U 23029J   24147.35886003 -.00001454  00000+0 -39562-2 0  9991
2 55804  87.8964  79.3395 0001878 117.3501 242.7820 13.14511836 60648
ONEWEB-0641             
1 55805U 23029K   24147.37948553  .00000044  00000+0  77212-4 0  9991
2 55805  87.9141  94.5728 0002349  86.6845 273.4556 13.19728152 59752
ONEWEB-0642             
1 55806U 23029L   24147.37475285 -.00000026  00000+0 -96432-4 0  9996
2 55806  87.9146  94.5953 0003049  92.9088 267.2393 13.19723958 59743
ONEWEB-0643             
1 55807U 23029M   24147.32874285  .00000275  00000+0  70611-3 0  9999
2 55807  87.8964  79.3221 0003050  77.9667 282.1804 13.14501882 60614
ONEWEB-0644             
1 55808U 23029N   24147.37001305  .00000022  00000+0  22110-4 0  9992
2 55808  87.9146  94.5919 0002692  89.5109 270.6332 13.19727586 59748
ONEWEB-0645             
1 55809U 23029P   24147.36605310 -.00000026  00000+0 -97515-4 0  9995
2 55809  87.9147  94.5942 0002360  96.0476 264.0926 13.19723411 59747
ONEWEB-0646             
1 55810U 23029Q   24147.39606765  .00000080  00000+0  16696-3 0  9993
2 55810  87.9144  94.5881 0002391  80.5383 279.6019 13.19727165 59731
ONEWEB-0648             
1 55811U 23029R   24147.37314537 -.00002578  00000+0 -69901-2 0  9997
2 55811  87.8976  79.2826 0003464  87.2644 272.8882 13.14514687 60620
ONEWEB-0649             
1 55812U 23029S   24147.28314153  .00000121  00000+0  26892-3 0  9995
2 55812  87.9145  94.6068 0002524  90.6747 269.4675 13.19726559 59759
ONEWEB-0650             
1 55813U 23029T   24147.35422050 -.00000206  00000+0 -54760-3 0  9991
2 55813  87.9165  94.5929 0003228  76.5929 283.5563 13.19717235 59736
ONEWEB-0652             
1 55814U 23029U   24147.35412567  .00000762  00000+0  20207-2 0  9997
2 55814  87.8968  79.3000 0001589  93.4366 266.6945 13.14496922 60593
ONEWEB-0653             
1 55815U 23029V   24147.33824295  .00000155  00000+0  38451-3 0  9998
2 55815  87.8967  79.2826 0001941  78.9995 281.1353 13.14506235 60624
ONEWEB-0654             
1 55816U 23029W   24147.33350253  .00000278  00000+0  71494-3 0  9997
2 55816  87.8965  79.2942 0001560  74.8312 285.2990 13.14502170 60645
ONEWEB-0656             
1 55817U 23029X   24147.31792804  .00001238  00000+0  30130-2 0  9996
2 55817  87.9220  64.0056 0002163  54.8398 305.2938 13.20764540 61904
ONEWEB-0657             
1 55818U 23029Y   24147.34947340  .00000919  00000+0  22636-2 0  9994
2 55818  87.9145  94.5976 0002361  55.8395 304.2961 13.19727997 59745
ONEWEB-0658             
1 55819U 23029Z   24147.42055284 -.00000763  00000+0 -19379-2 0  9990
2 55819  87.9144  94.5215 0002564  91.3993 268.7434 13.19727382 59764
ONEWEB-0660             
1 55820U 23029AA  24147.31129869 -.00000845  00000+0 -23140-2 0  9993
2 55820  87.8963  79.2732 0002129  90.5175 269.6199 13.14506117 60629
ONEWEB-0661             
1 55821U 23029AB  24147.34617298  .00000336  00000+0  87160-3 0  9991
2 55821  87.8967  79.3330 0001914  95.7737 264.3611 13.14506451 60612
ONEWEB-0662             
1 55822U 23029AC  24147.30495974 -.00001217  00000+0 -33188-2 0  9994
2 55822  87.8963  79.3484 0002074  97.3720 262.7645 13.14496503 60656
ONEWEB-0663             
1 55823U 23029AD  24147.31119997  .00000053  00000+0  97913-4 0  9997
2 55823  87.9223  64.0678 0002148  91.1093 269.0287 13.20785564 61894
ONEWEB-0664             
1 55824U 23029AE  24147.30530584  .00000011  00000+0 -55105-5 0  9999
2 55824  87.9224  64.0819 0001532  90.8370 269.2939 13.20772747 61898
ONEWEB-0665             
1 55825U 23029AF  24147.34300746 -.00006047  00000+0 -16348-1 0  9997
2 55825  87.8965  79.3088 0001804  89.3590 270.7747 13.14534206 60630
ONEWEB-0666             
1 55826U 23029AG  24147.29901233 -.00013844  00000+0 -34119-1 0  9999
2 55826  87.9232  64.0756 0002363  56.6579 303.4781 13.20796368 61906
ONEWEB-0667             
1 55827U 23029AH  24147.29267946 -.00000422  00000+0 -10697-2 0  9990
2 55827  87.9222  64.0088 0001861  90.6877 269.4470 13.20771581 61899
ONEWEB-0669             
1 55828U 23029AJ  24147.28796497  .00000011  00000+0 -59889-5 0  9990
2 55828  87.9222  64.0474 0001205  70.2234 289.9029 13.20772927 61894
ONEWEB-0670             
1 55829U 23029AK  24147.32080251  .00000147  00000+0  36118-3 0  9997
2 55829  87.8968  79.3180 0001864  98.3701 261.7640 13.14500421 60656
ONEWEB-0671             
1 55830U 23029AL  24147.41581126  .00001240  00000+0  30651-2 0  9996
2 55830  87.9145  94.5852 0001928  85.6667 274.4685 13.19723875 59745
ONEWEB-0672             
1 55831U 23029AM  24147.28320726 -.00001759  00000+0 -43590-2 0  9992
2 55831  87.9224  64.0320 0001672  74.3627 285.7690 13.20780421 61895
ONEWEB-0673             
1 55832U 23029AN  24147.39212090  .00000061  00000+0  12028-3 0  9995
2 55832  87.9143  94.5574 0002089  89.1720 270.9652 13.19723364 59742
ONEWEB-0674             
1 55833U 23029AP  24147.28908956 -.00000030  00000+0 -11490-3 0  9997
2 55833  87.8966  79.3310 0001679  96.5443 263.5878 13.14500722 60636
ONEWEB-0675             
1 55834U 23029AQ  24147.40793434 -.00004107  00000+0 -10294-1 0  9993
2 55834  87.9152  94.5869 0002561  68.7780 291.3626 13.19728525 59769
ONEWEB-0720             
1 55835U 23029AR  24147.40001480 -.00000704  00000+0 -17917-2 0  9996
2 55835  87.9146  94.5886 0002311  94.0264 266.1133 13.19732038 59682
ONEWEB-0537             
1 56046U 23043A   24147.58465710  .00000062  00000+0  12816-3 0  9995
2 56046  87.9125  18.3854 0002146  68.0374 292.0984 13.16597050 60068
ONEWEB-0538             
1 56047U 23043B   24147.57832019 -.00001349  00000+0 -35637-2 0  9991
2 56047  87.9128  18.4057 0002091  78.6965 281.4401 13.16603127 60070
ONEWEB-0546             
1 56048U 23043C   24147.56565281  .00000112  00000+0  25870-3 0  9999
2 56048  87.9126  18.3724 0001693  54.3284 305.8004 13.16596560 60062
ONEWEB-0547             
1 56049U 23043D   24147.58336478  .00000018  00000+0  11080-4 0  9990
2 56049  87.9309  33.5937 0002241  76.1873 283.9510 13.21808796 58931
ONEWEB-0548             
1 56050U 23043E   24147.59099306 -.00001083  00000+0 -28668-2 0  9992
2 56050  87.9120  18.4126 0001802  88.8308 271.3029 13.16602146 60069
ONEWEB-0549             
1 56051U 23043F   24147.19693973  .00000091  00000+0  18919-3 0  9994
2 56051  87.9311  33.6707 0002015  82.6782 277.4580 13.21824181 58888
ONEWEB-0550             
1 56052U 23043G   24147.63850395  .00000184  00000+0  41356-3 0  9991
2 56052  87.9306  33.5914 0001704  94.2003 265.9326 13.21824477 58946
ONEWEB-0551             
1 56053U 23043H   24147.63278514  .00000175  00000+0  43185-3 0  9991
2 56053  87.9056  48.7944 0002107  82.6806 277.4564 13.15549563 57584
ONEWEB-0552             
1 56054U 23043J   24147.63219687  .00000064  00000+0  12295-3 0  9993
2 56054  87.9307  33.6027 0001923  91.6465 268.4889 13.21829115 58947
ONEWEB-0553             
1 56055U 23043K   24147.57199131  .00000062  00000+0  12775-3 0  9999
2 56055  87.9124  18.4033 0001761  69.6778 290.4542 13.16592664 60073
ONEWEB-0554             
1 56056U 23043L   24147.63531686  .00000087  00000+0  19489-3 0  9998
2 56056  87.9126  18.4116 0001487 104.2215 255.9081 13.16595345 60067
